CTC1_L_00469011-03
1 37492U 24276AA  26070.40836806  .00000000  00000+0  00000-0 0  9995
2 37492  87.4000 120.0000 0000000   0.0000 200.0000 13.56072486    14
CTC1_L_00469011-04
1 37493U 23947CD  26070.40836806  .00000000  00000+0  00000-0 0  9990
2 37493  87.4000 120.0000 0000000   0.0000 260.0000 13.56072486    11
CTC1_L_00469011-05
1 37494U 23772EQ  26070.40836806  .00000000  00000+0  00000-0 0  9997
2 37494  87.4000 120.0000 0000000   0.0000 320.0000 13.56072486    19
CTC1_L_00469011-06
1 37495U 23576TG  26070.40836806  .00000000  00000+0  00000-0 0  9990
2 37495  87.4000 120.0000 0000000   0.0000  20.0000 13.56072486    17
CTC1_L_00469012-01
1 37496U 22427W   26070.40836806  .00000000  00000+0  00000-0 0  9995
2 37496  87.4000 132.0000 0000000   0.0000  88.0000 13.56072486    15
CTC1_L_00469012-02
1 37497U 25577DK  26070.40836806  .00000000  00000+0  00000-0 0  9995
2 37497  87.4000 132.0000 0000000   0.0000 148.0000 13.56072486    13
CTC1_L_00469012-03
1 37498U 23669PB  26070.40836806  .00000000  00000+0  00000-0 0  9996
2 37498  87.4000 132.0000 0000000   0.0000 208.0000 13.56072486    11
CTC1_L_00469012-04
1 37499U 25082CL  26070.40836806  .00000000  00000+0  00000-0 0  9998
2 37499  87.4000 132.0000 0000000   0.0000 268.0000 13.56072486    18
CTC1_L_00469012-05
1 37500U 23612CB  26070.40836806  .00000000  00000+0  00000-0 0  9998
2 37500  87.4000 132.0000 0000000   0.0000 328.0000 13.56072486    18
CTC1_L_00469012-06
1 37501U 26574VC  26070.40836806  .00000000  00000+0  00000-0 0  9999
2 37501  87.4000 132.0000 0000000   0.0000  28.0000 13.56072486    16
CTC1_L_00469013-01
1 37502U 24664S   26070.40836806  .00000000  00000+0  00000-0 0  9998
2 37502  87.4000 144.0000 0000000   0.0000  96.0000 13.56072486    15
CTC1_L_00469013-02
1 37503U 25271MD  26070.40836806  .00000000  00000+0  00000-0 0  9994
2 37503  87.4000 144.0000 0000000   0.0000 156.0000 13.56072486    13
CTC1_L_00469013-03
1 37504U 26823VV  26070.40836806  .00000000  00000+0  00000-0 0  9999
2 37504  87.4000 144.0000 0000000   0.0000 216.0000 13.56072486    11
CTC1_L_00469013-04
1 37505U 25002LW  26070.40836806  .00000000  00000+0  00000-0 0  9998
2 37505  87.4000 144.0000 0000000   0.0000 276.0000 13.56072486    18
CTC1_L_00469013-05
1 37506U 23407CQ  26070.40836806  .00000000  00000+0  00000-0 0  9996
2 37506  87.4000 144.0000 0000000   0.0000 336.0000 13.56072486    16
CTC1_L_00469013-06
1 37507U 25810WP  26070.40836806  .00000000  00000+0  00000-0 0  9997
2 37507  87.4000 144.0000 0000000   0.0000  36.0000 13.56072486    14
CTC1_L_00469014-01
1 37508U 22268IE  26070.40836806  .00000000  00000+0  00000-0 0  9992
2 37508  87.4000 156.0000 0000000   0.0000 104.0000 13.56072486    14
CTC1_L_00469014-02
1 37509U 24760DN  26070.40836806  .00000000  00000+0  00000-0 0  9992
2 37509  87.4000 156.0000 0000000   0.0000 164.0000 13.56072486    11
CTC1_L_00469014-03
1 37510U 24081LI  26070.40836806  .00000000  00000+0  00000-0 0  9990
2 37510  87.4000 156.0000 0000000   0.0000 224.0000 13.56072486    10
CTC1_L_00469014-04
1 37511U 25087VT  26070.40836806  .00000000  00000+0  00000-0 0  9998
2 37511  87.4000 156.0000 0000000   0.0000 284.0000 13.56072486    17
CTC1_L_00469014-05
1 37512U 26869KQ  26070.40836806  .00000000  00000+0  00000-0 0  9998
2 37512  87.4000 156.0000 0000000   0.0000 344.0000 13.56072486    15
CTC1_L_00469014-06
1 37513U 22271HV  26070.40836806  .00000000  00000+0  00000-0 0  9992
2 37513  87.4000 156.0000 0000000   0.0000  44.0000 13.56072486    13
CTC1_L_00469015-01
1 37514U 22010FG  26070.40836806  .00000000  00000+0  00000-0 0  9994
2 37514  87.4000 168.0000 0000000   0.0000 112.0000 13.56072486    13
CTC1_L_00469015-02
1 37515U 26070CF  26070.40836806  .00000000  00000+0  00000-0 0  9995
2 37515  87.4000 168.0000 0000000   0.0000 172.0000 13.56072486    10
CTC1_L_00469015-03
1 37516U 26919KQ  26070.40836806  .00000000  00000+0  00000-0 0  9998
2 37516  87.4000 168.0000 0000000   0.0000 232.0000 13.56072486    18
CTC1_L_00469015-04
1 37517U 22832FI  26070.40836806  .00000000  00000+0  00000-0 0  9999
2 37517  87.4000 168.0000 0000000   0.0000 292.0000 13.56072486    15
CTC1_L_00469015-05
1 37518U 26679R   26070.40836806  .00000000  00000+0  00000-0 0  9993
2 37518  87.4000 168.0000 0000000   0.0000 352.0000 13.56072486    13
CTC1_L_00469015-06
1 37519U 25269HA  26070.40836806  .00000000  00000+0  00000-0 0  9998
2 37519  87.4000 168.0000 0000000   0.0000  52.0000 13.56072486    11
CTC1_L_00469016-01
1 37520U 25514VE  26070.40836806  .00000000  00000+0  00000-0 0  9993
2 37520  87.4000 180.0000 0000000   0.0000 120.0000 13.56072486    13
CTC1_L_00469016-02
1 37521U 23513TV  26070.40836806  .00000000  00000+0  00000-0 0  9991
2 37521  87.4000 180.0000 0000000   0.0000 180.0000 13.56072486    10
CTC1_L_00469016-03
1 37522U 25491PM  26070.40836806  .00000000  00000+0  00000-0 0  9999
2 37522  87.4000 180.0000 0000000   0.0000 240.0000 13.56072486    18
CTC1_L_00469016-04
1 37523U 25758DN  26070.40836806  .00000000  00000+0  00000-0 0  9996
2 37523  87.4000 180.0000 0000000   0.0000 300.0000 13.56072486    16
CTC1_L_00469016-05
1 37524U 25428QM  26070.40836806  .00000000  00000+0  00000-0 0  9991
2 37524  87.4000 180.0000 0000000   0.0000   0.0000 13.56072486    14
CTC1_L_00469016-06
1 37525U 25575BH  26070.40836806  .00000000  00000+0  00000-0 0  9995
2 37525  87.4000 180.0000 0000000   0.0000  60.0000 13.56072486    11
CTC1_L_00469017-01
1 37526U 26945UO  26070.40836806  .00000000  00000+0  00000-0 0  9998
2 37526  87.4000 192.0000 0000000   0.0000 128.0000 13.56072486    10
CTC1_L_00469017-02
1 37527U 24969SJ  26070.40836806  .00000000  00000+0  00000-0 0  9993
2 37527  87.4000 192.0000 0000000   0.0000 188.0000 13.56072486    17
CTC1_L_00469017-03
1 37528U 23097LQ  26070.40836806  .00000000  00000+0  00000-0 0  9995
2 37528  87.4000 192.0000 0000000   0.0000 248.0000 13.56072486    15
CTC1_L_00469017-04
1 37529U 22024PB  26070.40836806  .00000000  00000+0  00000-0 0  9995
2 37529  87.4000 192.0000 0000000   0.0000 308.0000 13.56072486    13
CTC1_L_00469017-05
1 37530U 24585NX  26070.40836806  .00000000  00000+0  00000-0 0  9991
2 37530  87.4000 192.0000 0000000   0.0000   8.0000 13.56072486    12
CTC1_L_00469017-06
1 37531U 24848ZV  26070.40836806  .00000000  00000+0  00000-0 0  9994
2 37531  87.4000 192.0000 0000000   0.0000  68.0000 13.56072486    19
CTC1_L_00469018-01
1 37532U 25705DO  26070.40836806  .00000000  00000+0  00000-0 0  9998
2 37532  87.4000 204.0000 0000000   0.0000 136.0000 13.56072486    10
CTC1_L_00469018-02
1 37533U 22443MC  26070.40836806  .00000000  00000+0  00000-0 0  9995
2 37533  87.4000 204.0000 0000000   0.0000 196.0000 13.56072486    17
CTC1_L_00469018-03
1 37534U 24059BK  26070.40836806  .00000000  00000+0  00000-0 0  9991
2 37534  87.4000 204.0000 0000000   0.0000 256.0000 13.56072486    15
CTC1_L_00469018-04
1 37535U 23310UF  26070.40836806  .00000000  00000+0  00000-0 0  9991
2 37535  87.4000 204.0000 0000000   0.0000 316.0000 13.56072486    13
CTC1_L_00469018-05
1 37536U 26578PI  26070.40836806  .00000000  00000+0  00000-0 0  9991
2 37536  87.4000 204.0000 0000000   0.0000  16.0000 13.56072486    11
CTC1_L_00469018-06
1 37537U 23180SX  26070.40836806  .00000000  00000+0  00000-0 0  9998
2 37537  87.4000 204.0000 0000000   0.0000  76.0000 13.56072486    18
CTC1_L_00469019-01
1 37538U 23703NL  26070.40836806  .00000000  00000+0  00000-0 0  9990
2 37538  87.4000 216.0000 0000000   0.0000 144.0000 13.56072486    18
CTC1_L_00469019-02
1 37539U 24997AS  26070.40836806  .00000000  00000+0  00000-0 0  9997
2 37539  87.4000 216.0000 0000000   0.0000 204.0000 13.56072486    16
CTC1_L_00469019-03
1 37540U 24700MZ  26070.40836806  .00000000  00000+0  00000-0 0  9991
2 37540  87.4000 216.0000 0000000   0.0000 264.0000 13.56072486    14
CTC1_L_00469019-04
1 37541U 23401YU  26070.40836806  .00000000  00000+0  00000-0 0  9999
2 37541  87.4000 216.0000 0000000   0.0000 324.0000 13.56072486    12
CTC1_L_00469019-05
1 37542U 25384IU  26070.40836806  .00000000  00000+0  00000-0 0  9992
2 37542  87.4000 216.0000 0000000   0.0000  24.0000 13.56072486    10
CTC1_L_00469019-06
1 37543U 26503ZE  26070.40836806  .00000000  00000+0  00000-0 0  9997
2 37543  87.4000 216.0000 0000000   0.0000  84.0000 13.56072486    17
CTC1_L_00469020-01
1 37544U 25760X   26070.40836806  .00000000  00000+0  00000-0 0  9992
2 37544  87.4000 228.0000 0000000   0.0000 152.0000 13.56072486    17
CTC1_L_00469020-02
1 37545U 23631LH  26070.40836806  .00000000  00000+0  00000-0 0  9998
2 37545  87.4000 228.0000 0000000   0.0000 212.0000 13.56072486    15
CTC1_L_00469020-03
1 37546U 23068QM  26070.40836806  .00000000  00000+0  00000-0 0  9993
2 37546  87.4000 228.0000 0000000   0.0000 272.0000 13.56072486    12
CTC1_L_00469020-04
1 37547U 22775SA  26070.40836806  .00000000  00000+0  00000-0 0  9998
2 37547  87.4000 228.0000 0000000   0.0000 332.0000 13.56072486    10
CTC1_L_00469020-05
1 37548U 26529XX  26070.40836806  .00000000  00000+0  00000-0 0  9990
2 37548  87.4000 228.0000 0000000   0.0000  32.0000 13.56072486    18
CTC1_L_00469020-06
1 37549U 24945UC  26070.40836806  .00000000  00000+0  00000-0 0  9991
2 37549  87.4000 228.0000 0000000   0.0000  92.0000 13.56072486    15
CTC1_L_00469021-01
1 37550U 23741KH  26070.40836806  .00000000  00000+0  00000-0 0  9996
2 37550  87.4000 240.0000 0000000   0.0000 160.0000 13.56072486    17
CTC1_L_00469021-02
1 37551U 26076ND  26070.40836806  .00000000  00000+0  00000-0 0  9991
2 37551  87.4000 240.0000 0000000   0.0000 220.0000 13.56072486    15
CTC1_L_00469021-03
1 37552U 22054WZ  26070.40836806  .00000000  00000+0  00000-0 0  9994
2 37552  87.4000 240.0000 0000000   0.0000 280.0000 13.56072486    12
CTC1_L_00469021-04
1 37553U 26204VR  26070.40836806  .00000000  00000+0  00000-0 0  9996
2 37553  87.4000 240.0000 0000000   0.0000 340.0000 13.56072486    10
